[{"OBJECT_NAME":"STARLINK-3054","OBJECT_ID":"2021-082AP","EPOCH":"2026-03-09T22:20:32.440992","MEAN_MOTION":14.98330582,"ECCENTRICITY":0.00026696,"INCLINATION":69.999,"RA_OF_ASC_NODE":293.8403,"ARG_OF_PERICENTER":269.1801,"MEAN_ANOMALY":90.9052,"EPHEMERIS_TYPE":0,"CLASSIFICATION_TYPE":"U","NORAD_CAT_ID":49167,"ELEMENT_SET_NO":999,"REV_AT_EPOCH":24721,"BSTAR":-2.0115793e-5,"MEAN_MOTION_DOT":-3.33e-6,"MEAN_MOTION_DDOT":0},{"OBJECT_NAME":"COSMOS 374 DEB","OBJECT_ID":"1970-089R","EPOCH":"2026-03-09T23:31:48.583488","MEAN_MOTION":14.77254595,"ECCENTRICITY":0.02111715,"INCLINATION":62.9169,"RA_OF_ASC_NODE":36.0296,"ARG_OF_PERICENTER":183.9757,"MEAN_ANOMALY":175.9665,"EPHEMERIS_TYPE":0,"CLASSIFICATION_TYPE":"U","NORAD_CAT_ID":4699,"ELEMENT_SET_NO":999,"REV_AT_EPOCH":69712,"BSTAR":0.00093271905,"MEAN_MOTION_DOT":9.446e-5,"MEAN_MOTION_DDOT":0}]
